start=new Date('2022-05-09T00:00:00.000Z').valueOf();
sats=[{"NORAD_CAT_ID":"52360","CLASSIFICATION_TYPE":"U","MEAN_ELEMENT_THEORY":"SGP4","SITE":"AFETR","COUNTRY_CODE":"US","SEMIMAJOR_AXIS":"6717.850","OBJECT_ID":"2022-045AF","REF_FRAME":"TEME","FILE":"3435668","EPOCH":"2022-05-08T14:00:01.000224","APOAPSIS":"340.455","REV_AT_EPOCH":"390","TLE_LINE2":"2 52360  53.2175  33.2242 0001102  94.4255 183.4892 15.76730068  3900","ELEMENT_SET_NO":"999","PERIAPSIS":"338.974","OBJECT_NAME":"STARLINK-3824","ECCENTRICITY":"0.00011020","ARG_OF_PERICENTER":"94.4255","EPHEMERIS_TYPE":"0","LAUNCH_DATE":"2022-04-29","MEAN_ANOMALY":"183.4892","MEAN_MOTION_DDOT":"0.0000000000000","MEAN_MOTION":"15.76730068","BSTAR":"-0.00590280000000","OBJECT_TYPE":"PAYLOAD","TLE_LINE1":"1 52360U 22045AF  22128.58334491 -.00873013  00000-0 -59028-2 0  9991","TIME_SYSTEM":"UTC","DECAY_DATE":null,"INCLINATION":"53.2175","GP_ID":"202992409","RCS_SIZE":null,"CENTER_NAME":"EARTH","PERIOD":"91.328","MEAN_MOTION_DOT":"-0.00873013","RA_OF_ASC_NODE":"33.2242"},{"REV_AT_EPOCH":"395","TLE_LINE2":"2 52361  53.2178  31.9861 0001138  87.6660 167.9828 15.76179994  3955","ECCENTRICITY":"0.00011380","OBJECT_NAME":"STARLINK-3728","ELEMENT_SET_NO":"999","PERIAPSIS":"340.513","REF_FRAME":"TEME","OBJECT_ID":"2022-045AG","SEMIMAJOR_AXIS":"6719.412","EPOCH":"2022-05-08T20:00:01.000224","APOAPSIS":"342.042","FILE":"3436085","COUNTRY_CODE":"US","SITE":"AFETR","CLASSIFICATION_TYPE":"U","NORAD_CAT_ID":"52361","MEAN_ELEMENT_THEORY":"SGP4","RCS_SIZE":null,"INCLINATION":"53.2178","GP_ID":"203027383","MEAN_MOTION_DOT":"-0.00875702","PERIOD":"91.360","RA_OF_ASC_NODE":"31.9861","CENTER_NAME":"EARTH","BSTAR":"-0.00606980000000","OBJECT_TYPE":"PAYLOAD","DECAY_DATE":null,"TIME_SYSTEM":"UTC","TLE_LINE1":"1 52361U 22045AG  22128.83334491 -.00875702  00000-0 -60698-2 0  9992","MEAN_MOTION_DDOT":"0.0000000000000","LAUNCH_DATE":"2022-04-29","MEAN_ANOMALY":"167.9828","MEAN_MOTION":"15.76179994","ARG_OF_PERICENTER":"87.6660","EPHEMERIS_TYPE":"0"},{"TLE_LINE1":"1 52362U 22045AH  22128.83334491 -.00875725  00000-0 -60428-2 0  9999","TIME_SYSTEM":"UTC","DECAY_DATE":null,"BSTAR":"-0.00604280000000","OBJECT_TYPE":"PAYLOAD","CENTER_NAME":"EARTH","PERIOD":"91.354","MEAN_MOTION_DOT":"-0.00875725","RA_OF_ASC_NODE":"31.9807","GP_ID":"203024345","INCLINATION":"53.2178","RCS_SIZE":null,"EPHEMERIS_TYPE":"0","ARG_OF_PERICENTER":"103.2927","MEAN_MOTION":"15.76280464","MEAN_MOTION_DDOT":"0.0000000000000","LAUNCH_DATE":"2022-04-29","MEAN_ANOMALY":"154.7573","FILE":"3435941","EPOCH":"2022-05-08T20:00:01.000224","APOAPSIS":"341.791","SEMIMAJOR_AXIS":"6719.127","OBJECT_ID":"2022-045AH","REF_FRAME":"TEME","ELEMENT_SET_NO":"999","PERIAPSIS":"340.193","OBJECT_NAME":"STARLINK-3848","ECCENTRICITY":"0.00011890","TLE_LINE2":"2 52362  53.2178  31.9807 0001189 103.2927 154.7573 15.76280464  3959","REV_AT_EPOCH":"395","MEAN_ELEMENT_THEORY":"SGP4","NORAD_CAT_ID":"52362","CLASSIFICATION_TYPE":"U","SITE":"AFETR","COUNTRY_CODE":"US"},{"MEAN_ELEMENT_THEORY":"SGP4","NORAD_CAT_ID":"52363","CLASSIFICATION_TYPE":"U","SITE":"AFETR","COUNTRY_CODE":"US","APOAPSIS":"341.985","EPOCH":"2022-05-08T20:00:01.000224","FILE":"3435941","REF_FRAME":"TEME","SEMIMAJOR_AXIS":"6719.353","OBJECT_ID":"2022-045AJ","OBJECT_NAME":"STARLINK-3830","ECCENTRICITY":"0.00011410","PERIAPSIS":"340.451","ELEMENT_SET_NO":"999","TLE_LINE2":"2 52363  53.2178  31.9850 0001141  92.2721 163.8540 15.76200895  3950","REV_AT_EPOCH":"395","EPHEMERIS_TYPE":"0","ARG_OF_PERICENTER":"92.2721","MEAN_MOTION":"15.76200895","LAUNCH_DATE":"2022-04-29","MEAN_MOTION_DDOT":"0.0000000000000","MEAN_ANOMALY":"163.8540","DECAY_DATE":null,"TLE_LINE1":"1 52363U 22045AJ  22128.83334491 -.00875734  00000-0 -60644-2 0  9990","TIME_SYSTEM":"UTC","OBJECT_TYPE":"PAYLOAD","BSTAR":"-0.00606440000000","PERIOD":"91.359","MEAN_MOTION_DOT":"-0.00875734","RA_OF_ASC_NODE":"31.9850","CENTER_NAME":"EARTH","GP_ID":"203023846","INCLINATION":"53.2178","RCS_SIZE":null},{"ARG_OF_PERICENTER":"100.2614","EPHEMERIS_TYPE":"0","MEAN_ANOMALY":"179.0378","LAUNCH_DATE":"2022-04-29","MEAN_MOTION_DDOT":"0.0000000000000","MEAN_MOTION":"15.76789618","BSTAR":"-0.00588710000000","OBJECT_TYPE":"PAYLOAD","DECAY_DATE":null,"TIME_SYSTEM":"UTC","TLE_LINE1":"1 52364U 22045AK  22128.58334491 -.00873004  00000-0 -58871-2 0  9990","RCS_SIZE":null,"INCLINATION":"53.2175","GP_ID":"202992426","PERIOD":"91.325","MEAN_MOTION_DOT":"-0.00873004","RA_OF_ASC_NODE":"33.2212","CENTER_NAME":"EARTH","NORAD_CAT_ID":"52364","CLASSIFICATION_TYPE":"U","MEAN_ELEMENT_THEORY":"SGP4","COUNTRY_CODE":"US","SITE":"AFETR","REF_FRAME":"TEME","OBJECT_ID":"2022-045AK","SEMIMAJOR_AXIS":"6717.680","APOAPSIS":"340.270","EPOCH":"2022-05-08T14:00:01.000224","FILE":"3435682","REV_AT_EPOCH":"391","TLE_LINE2":"2 52364  53.2175  33.2212 0001078 100.2614 179.0378 15.76789618  3914","ECCENTRICITY":"0.00010780","OBJECT_NAME":"STARLINK-3820","PERIAPSIS":"338.821","ELEMENT_SET_NO":"999"},{"OBJECT_ID":"2022-045AL","SEMIMAJOR_AXIS":"6719.241","REF_FRAME":"TEME","FILE":"3435941","EPOCH":"2022-05-08T20:00:01.000224","APOAPSIS":"341.868","TLE_LINE2":"2 52365  53.2178  31.9830 0001135  92.2637 164.8279 15.76240387  3959","REV_AT_EPOCH":"395","ELEMENT_SET_NO":"999","PERIAPSIS":"340.343","ECCENTRICITY":"0.00011350","OBJECT_NAME":"STARLINK-3874","NORAD_CAT_ID":"52365","CLASSIFICATION_TYPE":"U","MEAN_ELEMENT_THEORY":"SGP4","COUNTRY_CODE":"US","SITE":"AFETR","BSTAR":"-0.00605440000000","OBJECT_TYPE":"PAYLOAD","TIME_SYSTEM":"UTC","TLE_LINE1":"1 52365U 22045AL  22128.83334491 -.00875816  00000-0 -60544-2 0  9992","DECAY_DATE":null,"RCS_SIZE":null,"GP_ID":"203023835","INCLINATION":"53.2178","CENTER_NAME":"EARTH","PERIOD":"91.357","RA_OF_ASC_NODE":"31.9830","MEAN_MOTION_DOT":"-0.00875816","ARG_OF_PERICENTER":"92.2637","EPHEMERIS_TYPE":"0","MEAN_ANOMALY":"164.8279","LAUNCH_DATE":"2022-04-29","MEAN_MOTION_DDOT":"0.0000000000000","MEAN_MOTION":"15.76240387"},{"PERIAPSIS":"338.700","ELEMENT_SET_NO":"999","OBJECT_NAME":"STARLINK-3808","ECCENTRICITY":"0.00010920","REV_AT_EPOCH":"391","TLE_LINE2":"2 52366  53.2175  33.2193 0001092 104.2083 176.0135 15.76828858  3912","FILE":"3435682","APOAPSIS":"340.168","EPOCH":"2022-05-08T14:00:01.000224","SEMIMAJOR_AXIS":"6717.569","OBJECT_ID":"2022-045AM","REF_FRAME":"TEME","SITE":"AFETR","COUNTRY_CODE":"US","MEAN_ELEMENT_THEORY":"SGP4","CLASSIFICATION_TYPE":"U","NORAD_CAT_ID":"52366","CENTER_NAME":"EARTH","PERIOD":"91.323","MEAN_MOTION_DOT":"-0.00873038","RA_OF_ASC_NODE":"33.2193","INCLINATION":"53.2175","GP_ID":"202991928","RCS_SIZE":null,"TLE_LINE1":"1 52366U 22045AM  22128.58334491 -.00873038  00000-0 -58770-2 0  9997","TIME_SYSTEM":"UTC","DECAY_DATE":null,"BSTAR":"-0.00587700000000","OBJECT_TYPE":"PAYLOAD","MEAN_MOTION":"15.76828858","LAUNCH_DATE":"2022-04-29","MEAN_ANOMALY":"176.0135","MEAN_MOTION_DDOT":"0.0000000000000","EPHEMERIS_TYPE":"0","ARG_OF_PERICENTER":"104.2083"},{"MEAN_ELEMENT_THEORY":"SGP4","CLASSIFICATION_TYPE":"U","NORAD_CAT_ID":"52367","SITE":"AFETR","COUNTRY_CODE":"US","FILE":"3435941","APOAPSIS":"341.706","EPOCH":"2022-05-08T20:00:01.000224","SEMIMAJOR_AXIS":"6719.072","OBJECT_ID":"2022-045AN","REF_FRAME":"TEME","ELEMENT_SET_NO":"999","PERIAPSIS":"340.169","OBJECT_NAME":"STARLINK-3817","ECCENTRICITY":"0.00011440","REV_AT_EPOCH":"395","TLE_LINE2":"2 52367  53.2178  31.9800 0001144  90.8192 167.7148 15.76299663  3956","EPHEMERIS_TYPE":"0","ARG_OF_PERICENTER":"90.8192","MEAN_MOTION":"15.76299663","LAUNCH_DATE":"2022-04-29","MEAN_MOTION_DDOT":"0.0000000000000","MEAN_ANOMALY":"167.7148","TLE_LINE1":"1 52367U 22045AN  22128.83334491 -.00875876  00000-0 -60389-2 0  9997","TIME_SYSTEM":"UTC","DECAY_DATE":null,"BSTAR":"-0.00603890000000","OBJECT_TYPE":"PAYLOAD","CENTER_NAME":"EARTH","MEAN_MOTION_DOT":"-0.00875876","PERIOD":"91.353","RA_OF_ASC_NODE":"31.9800","GP_ID":"203023844","INCLINATION":"53.2178","RCS_SIZE":null},{"OBJECT_ID":"2022-045AP","SEMIMAJOR_AXIS":"6717.408","REF_FRAME":"TEME","FILE":"3435670","EPOCH":"2022-05-08T14:00:01.000224","APOAPSIS":"340.016","REV_AT_EPOCH":"390","TLE_LINE2":"2 52368  53.2175  33.2162 0001106 104.1941 177.4211 15.76885542  3900","PERIAPSIS":"338.530","ELEMENT_SET_NO":"999","ECCENTRICITY":"0.00011060","OBJECT_NAME":"STARLINK-3834","NORAD_CAT_ID":"52368","CLASSIFICATION_TYPE":"U","MEAN_ELEMENT_THEORY":"SGP4","COUNTRY_CODE":"US","SITE":"AFETR","OBJECT_TYPE":"PAYLOAD","BSTAR":"-0.00586220000000","TIME_SYSTEM":"UTC","TLE_LINE1":"1 52368U 22045AP  22128.58334491 -.00873053  00000-0 -58622-2 0  9992","DECAY_DATE":null,"RCS_SIZE":null,"INCLINATION":"53.2175","GP_ID":"202991950","CENTER_NAME":"EARTH","RA_OF_ASC_NODE":"33.2162","PERIOD":"91.319","MEAN_MOTION_DOT":"-0.00873053","ARG_OF_PERICENTER":"104.1941","EPHEMERIS_TYPE":"0","MEAN_ANOMALY":"177.4211","LAUNCH_DATE":"2022-04-29","MEAN_MOTION_DDOT":"0.0000000000000","MEAN_MOTION":"15.76885542"},{"SITE":"AFETR","COUNTRY_CODE":"US","MEAN_ELEMENT_THEORY":"SGP4","CLASSIFICATION_TYPE":"U","NORAD_CAT_ID":"52369","OBJECT_NAME":"STARLINK-3841","ECCENTRICITY":"0.00010950","ELEMENT_SET_NO":"999","PERIAPSIS":"338.754","REV_AT_EPOCH":"391","TLE_LINE2":"2 52369  53.2175  33.2206 0001095 103.9189 175.8425 15.76809205  3910","APOAPSIS":"340.225","EPOCH":"2022-05-08T14:00:01.000224","FILE":"3435682","REF_FRAME":"TEME","SEMIMAJOR_AXIS":"6717.625","OBJECT_ID":"2022-045AQ","MEAN_MOTION":"15.76809205","LAUNCH_DATE":"2022-04-29","MEAN_ANOMALY":"175.8425","MEAN_MOTION_DDOT":"0.0000000000000","EPHEMERIS_TYPE":"0","ARG_OF_PERICENTER":"103.9189","PERIOD":"91.324","RA_OF_ASC_NODE":"33.2206","MEAN_MOTION_DOT":"-0.00873070","CENTER_NAME":"EARTH","GP_ID":"202991926","INCLINATION":"53.2175","RCS_SIZE":null,"DECAY_DATE":null,"TLE_LINE1":"1 52369U 22045AQ  22128.58334491 -.00873070  00000-0 -58824-2 0  9996","TIME_SYSTEM":"UTC","BSTAR":"-0.00588240000000","OBJECT_TYPE":"PAYLOAD"}];
